NORAD_CAT_ID,OBJECT_NAME,OBJECT_TYPE,EPOCH,MEAN_MOTION,ECCENTRICITY,INCLINATION,RA_OF_ASC_NODE,ARG_OF_PERICENTER,MEAN_ANOMALY,BSTAR,MEAN_MOTION_DOT,MEAN_MOTION_DDOT,TLE_LINE0,TLE_LINE1,TLE_LINE2,SEMIMAJOR_AXIS,PERIOD,APOGEE,PERIGEE,DECAYED
55664.0,STARLINK-5480,PAYLOAD,2024-01-17 03:17:58,14.98332,0.0002526,70.001,337.6365,249.2468,110.8421,7.3863e-05,7.89e-06,0.0,0 STARLINK-5480,1 55664U 23021AN  24017.13748406  .00000789  00000-0  73863-4 0  9996,2 55664  70.0010 337.6365 0002526 249.2468 110.8421 14.98332000 51765,6950.187,96.107,573.807,570.296,0.0
55664.0,STARLINK-5480,PAYLOAD,2024-01-17 06:30:14,14.98337001,0.0002631,70.0008,337.3003,256.45,103.6366,7.5883e-05,8.13e-06,0.0,0 STARLINK-5480,1 55664U 23021AN  24017.27100110  .00000813  00000-0  75883-4 0  9997,2 55664  70.0008 337.3003 0002631 256.4500 103.6366 14.98337001 52082,6950.171,96.107,573.865,570.208,0.0
55664.0,STARLINK-5480,PAYLOAD,2024-01-17 22:31:35,14.98327937,0.0002383,70.0022,335.6198,242.5686,117.5231,9.3954e-05,1.028e-05,0.0,0 STARLINK-5480,1 55664U 23021AN  24017.93860669  .00001028  00000-0  93954-4 0  9990,2 55664  70.0022 335.6198 0002383 242.5686 117.5231 14.98327937 52182,6950.199,96.107,573.721,570.408,0.0
55664.0,STARLINK-5480,PAYLOAD,2024-01-18 03:19:59,14.98326402,0.0002447,70.0019,335.1141,247.1047,112.9854,7.4628e-05,7.98e-06,0.0,0 STARLINK-5480,1 55664U 23021AN  24018.13888857  .00000798  00000-0  74628-4 0  9992,2 55664  70.0019 335.1141 0002447 247.1047 112.9854 14.98326402 51910,6950.204,96.107,573.77,570.368,0.0
55664.0,STARLINK-5480,PAYLOAD,2024-01-18 06:32:15,14.98329702,0.0002786,70.0007,334.7753,267.526,92.558,8.4395e-05,9.14e-06,0.0,0 STARLINK-5480,1 55664U 23021AN  24018.27240705  .00000914  00000-0  84395-4 0  9993,2 55664  70.0007 334.7753 0002786 267.5260  92.5580 14.98329702 52231,6950.194,96.107,573.995,570.122,0.0
55664.0,STARLINK-5480,PAYLOAD,2024-01-18 22:33:36,14.9833204,0.0002857,70.0008,333.0922,266.5795,93.5038,5.9248e-05,6.14e-06,0.0,0 STARLINK-5480,1 55664U 23021AN  24018.94000605  .00000614  00000-0  59248-4 0  9996,2 55664  70.0008 333.0922 0002857 266.5795  93.5038 14.98332040 52332,6950.187,96.107,574.037,570.066,0.0
55664.0,STARLINK-5480,PAYLOAD,2024-01-19 03:22:00,14.98333519,0.0003159,70.0008,332.5865,272.8352,87.2445,7.8239e-05,8.41e-06,0.0,0 STARLINK-5480,1 55664U 23021AN  24019.14028450  .00000841  00000-0  78239-4 0  9990,2 55664  70.0008 332.5865 0003159 272.8352  87.2445 14.98333519 52061,6950.182,96.107,574.243,569.851,0.0
55664.0,STARLINK-5480,PAYLOAD,2024-01-19 06:34:16,14.98336657,0.0002945,70.0009,332.2503,268.734,91.3482,0.00011447,1.273e-05,0.0,0 STARLINK-5480,1 55664U 23021AN  24019.27380172  .00001273  00000-0  11447-3 0  9993,2 55664  70.0009 332.2503 0002945 268.7340  91.3482 14.98336657 52389,6950.172,96.107,574.084,569.99,0.0
55664.0,STARLINK-5480,PAYLOAD,2024-01-19 22:35:37,14.98330246,0.0002786,70.0011,330.5669,265.0107,95.0734,8.7193e-05,9.48e-06,0.0,0 STARLINK-5480,1 55664U 23021AN  24019.94140532  .00000948  00000-0  87193-4 0  9991,2 55664  70.0011 330.5669 0002786 265.0107  95.0734 14.98330246 52480,6950.192,96.107,573.993,570.121,0.0
55664.0,STARLINK-5480,PAYLOAD,2024-01-20 03:24:01,14.9833231,0.000275,70.001,330.0616,264.4467,95.6378,0.00010968,1.216e-05,0.0,0 STARLINK-5480,1 55664U 23021AN  24020.14168341  .00001216  00000-0  10968-3 0  9997,2 55664  70.0010 330.0616 0002750 264.4467  95.6378 14.98332310 52214,6950.186,96.107,573.962,570.139,0.0
55664.0,STARLINK-5480,PAYLOAD,2024-01-20 06:36:17,14.98335672,0.0002722,70.0012,329.7255,264.1681,95.9168,0.00014786,1.672e-05,0.0,0 STARLINK-5480,1 55664U 23021AN  24020.27520059  .00001672  00000-0  14786-3 0  9997,2 55664  70.0012 329.7255 0002722 264.1681  95.9168 14.98335672 52533,6950.175,96.107,573.932,570.149,0.0
55664.0,STARLINK-5480,PAYLOAD,2024-01-20 22:37:38,14.9833255,0.0002554,70.0018,328.0447,248.7614,111.3272,5.6157e-05,5.77e-06,0.0,0 STARLINK-5480,1 55664U 23021AN  24020.94280291  .00000577  00000-0  56157-4 0  9994,2 55664  70.0018 328.0447 0002554 248.7614 111.3272 14.98332550 52633,6950.185,96.107,573.825,570.275,0.0
55664.0,STARLINK-5480,PAYLOAD,2024-01-21 03:26:02,14.98331323,0.0002584,70.0018,327.5398,249.0429,111.0454,3.2824e-05,2.99e-06,0.0,0 STARLINK-5480,1 55664U 23021AN  24021.14308384  .00000299  00000-0  32824-4 0  9997,2 55664  70.0018 327.5398 0002584 249.0429 111.0454 14.98331323 52369,6950.189,96.107,573.85,570.258,0.0
55664.0,STARLINK-5480,PAYLOAD,2024-01-21 06:38:18,14.98331094,0.0002569,70.0016,327.2026,252.0887,107.9992,2.8248e-05,2.44e-06,0.0,0 STARLINK-5480,1 55664U 23021AN  24021.27660447  .00000244  00000-0  28248-4 0  9997,2 55664  70.0016 327.2026 0002569 252.0887 107.9992 14.98331094 52688,6950.19,96.107,573.84,570.269,0.0
55664.0,STARLINK-5480,PAYLOAD,2024-01-21 22:39:39,14.98330395,0.0002522,70.0014,325.5176,260.0749,100.0125,1.0635e-05,3.4e-07,0.0,0 STARLINK-5480,1 55664U 23021AN  24021.94420468  .00000034  00000-0  10635-4 0  9996,2 55664  70.0014 325.5176 0002522 260.0749 100.0125 14.98330395 52784,6950.192,96.107,573.81,570.304,0.0
55664.0,STARLINK-5480,PAYLOAD,2024-01-22 03:28:03,14.98331381,0.0002501,70.0013,325.0125,258.5337,101.5542,2.1884e-05,1.68e-06,0.0,0 STARLINK-5480,1 55664U 23021AN  24022.14448353  .00000168  00000-0  21884-4 0  9998,2 55664  70.0013 325.0125 0002501 258.5337 101.5542 14.98331381 52510,6950.189,96.107,573.792,570.315,0.0
55664.0,STARLINK-5480,PAYLOAD,2024-01-22 06:40:19,14.98334161,0.0002485,70.0014,324.6755,257.2999,102.7882,5.5595e-05,5.71e-06,0.0,0 STARLINK-5480,1 55664U 23021AN  24022.27800108  .00000571  00000-0  55595-4 0  9996,2 55664  70.0014 324.6755 0002485 257.2999 102.7882 14.98334161 52830,6950.18,96.107,573.772,570.318,0.0
55664.0,STARLINK-5480,PAYLOAD,2024-01-22 22:41:39,14.98330038,0.0002453,70.0012,322.992,255.0527,105.036,8.7271e-05,9.49e-06,0.0,0 STARLINK-5480,1 55664U 23021AN  24022.94560146  .00000949  00000-0  87271-4 0  9990,2 55664  70.0012 322.9920 0002453 255.0527 105.0360 14.98330038 52938,6950.193,96.107,573.763,570.353,0.0
55664.0,STARLINK-5480,PAYLOAD,2024-01-23 03:30:04,14.98330801,0.0002427,70.0014,322.4873,255.8671,104.2218,9.3102e-05,1.018e-05,0.0,0 STARLINK-5480,1 55664U 23021AN  24023.14588102  .00001018  00000-0  93102-4 0  9993,2 55664  70.0014 322.4873 0002427 255.8671 104.2218 14.98330801 52662,6950.19,96.107,573.742,570.369,0.0
55664.0,STARLINK-5480,PAYLOAD,2024-01-23 05:06:12,14.98332852,0.000242,70.0014,322.3191,254.9069,105.1823,0.00011782,1.313e-05,0.0,0 STARLINK-5480,1 55664U 23021AN  24023.21263964  .00001313  00000-0  11782-3 0  9998,2 55664  70.0014 322.3191 0002420 254.9069 105.1823 14.98332852 52972,6950.184,96.107,573.731,570.367,0.0
55664.0,STARLINK-5480,PAYLOAD,2024-01-23 22:43:40,14.98329748,0.0002323,70.0019,320.4682,248.5918,111.4993,6.1236e-05,6.38e-06,0.0,0 STARLINK-5480,1 55664U 23021AN  24023.94700198  .00000638  00000-0  61236-4 0  9992,2 55664  70.0019 320.4682 0002323 248.5918 111.4993 14.98329748 53086,6950.194,96.107,573.673,570.444,0.0
55664.0,STARLINK-5480,PAYLOAD,2024-01-24 03:32:05,14.98327749,0.0002363,70.002,319.9633,249.7195,110.371,2.9237e-05,2.56e-06,0.0,0 STARLINK-5480,1 55664U 23021AN  24024.14728410  .00000256  00000-0  29237-4 0  9993,2 55664  70.0020 319.9633 0002363 249.7195 110.3710 14.98327749 52815,6950.2,96.107,573.707,570.423,0.0
55664.0,STARLINK-5480,PAYLOAD,2024-01-24 05:08:13,14.9832898,0.0002361,70.002,319.795,249.4483,110.6423,4.5355e-05,4.48e-06,0.0,0 STARLINK-5480,1 55664U 23021AN  24024.21404371  .00000448  00000-0  45355-4 0  9990,2 55664  70.0020 319.7950 0002361 249.4483 110.6423 14.98328980 53127,6950.196,96.107,573.702,570.42,0.0
55664.0,STARLINK-5480,PAYLOAD,2024-01-24 22:45:41,14.98331741,0.0002471,70.002,317.9452,244.9449,115.1454,1.104e-05,3.9e-07,0.0,0 STARLINK-5480,1 55664U 23021AN  24024.94840194  .00000039  00000-0  11040-4 0  9997,2 55664  70.0020 317.9452 0002471 244.9449 115.1454 14.98331741 53233,6950.188,96.107,573.77,570.335,0.0
55664.0,STARLINK-5480,PAYLOAD,2024-01-25 03:34:06,14.98328812,0.0002517,70.0018,317.4398,248.0394,112.0498,-2.9551e-05,-4.45e-06,0.0,0 STARLINK-5480,1 55664U 23021AN  24025.14868477 -.00000445  00000-0 -29551-4 0  9993,2 55664  70.0018 317.4398 0002517 248.0394 112.0498 14.98328812 52967,6950.197,96.107,573.811,570.312,0.0
55664.0,STARLINK-5480,PAYLOAD,2024-01-25 05:10:14,14.98328713,0.0002518,70.0017,317.2712,250.0395,110.0493,-2.9716e-05,-4.47e-06,0.0,0 STARLINK-5480,1 55664U 23021AN  24025.21544519 -.00000447  00000-0 -29716-4 0  9994,2 55664  70.0017 317.2712 0002518 250.0395 110.0493 14.98328713 53277,6950.197,96.107,573.812,570.312,0.0
55664.0,STARLINK-5480,PAYLOAD,2024-01-25 22:47:43,14.98328124,0.0002636,70.0014,315.419,254.2881,105.7987,2.9145e-05,2.55e-06,0.0,0 STARLINK-5480,1 55664U 23021AN  24025.94980456  .00000255  00000-0  29145-4 0  9999,2 55664  70.0014 315.4190 0002636 254.2881 105.7987 14.98328124 53388,6950.199,96.107,573.896,570.232,0.0
55664.0,STARLINK-5480,PAYLOAD,2024-01-26 03:36:07,14.98330506,0.0002588,70.0015,314.9143,251.1383,108.9495,5.9408e-05,6.16e-06,0.0,0 STARLINK-5480,1 55664U 23021AN  24026.15008230  .00000616  00000-0  59408-4 0  9990,2 55664  70.0015 314.9143 0002588 251.1383 108.9495 14.98330506 53117,6950.191,96.107,573.855,570.258,0.0
55664.0,STARLINK-5480,PAYLOAD,2024-01-26 05:12:15,14.98331472,0.0002588,70.0015,314.7462,250.9494,109.1385,7.118e-05,7.56e-06,0.0,0 STARLINK-5480,1 55664U 23021AN  24026.21684191  .00000756  00000-0  71180-4 0  9999,2 55664  70.0015 314.7462 0002588 250.9494 109.1385 14.98331472 53427,6950.188,96.107,573.852,570.255,0.0
55664.0,STARLINK-5480,PAYLOAD,2024-01-27 03:38:07,14.9833132,0.0002547,70.0012,312.3878,258.9903,101.097,0.00010243,1.129e-05,0.0,0 STARLINK-5480,1 55664U 23021AN  24027.15148102  .00001129  00000-0  10243-3 0  9997,2 55664  70.0012 312.3878 0002547 258.9903 101.0970 14.98331320 53262,6950.189,96.107,573.824,570.284,0.0
